{
  "type": "FeatureCollection",
  "features": [
    {
      "type": "Feature",
      "properties": {
        "norad_id": 31341,
        "name": "FENGYUN 1C DEB",
        "group": "fengyun-1c-debris",
        "lat": -80.40774191519397,
        "lon": 113.00573697083773,
        "alt_km": 713.4924620859274,
        "timestamp": "2025-12-12T09:49:09.013754+00:00",
        "meta_object_name": "FENGYUN 1C DEB",
        "meta_object_id": "1999-025BQV",
        "meta_epoch": "2025-12-12T02:05:41.253792",
        "meta_mean_motion": 14.53311722,
        "meta_eccentricity": 0.0053041,
        "meta_inclination": 99.5557,
        "meta_ra_of_asc_node": 27.2444,
        "meta_arg_of_pericenter": 348.7438,
        "meta_mean_anomaly": 39.677,
        "meta_ephemeris_type": 0,
        "meta_classification_type": "U",
        "meta_norad_cat_id": 31341,
        "meta_element_set_no": 999,
        "meta_rev_at_epoch": 97609,
        "meta_bstar": 0.0020227,
        "meta_mean_motion_dot": 8.51e-05,
        "meta_mean_motion_ddot": 0,
        "tle_line1": "1 31341U 99025BQV 25346.08728303  .00008510  00000+0  20227-2 0  9996",
        "tle_line2": "2 31341  99.5557  27.2444 0053041 348.7438  39.6770 14.53311722976099"
      },
      "geometry": {
        "type": "Point",
        "coordinates": [
          113.00573697083773,
          -80.40774191519397
        ]
      }
    },
    {
      "type": "Feature",
      "properties": {
        "norad_id": 31342,
        "name": "FENGYUN 1C DEB",
        "group": "fengyun-1c-debris",
        "lat": 55.83410870643635,
        "lon": -70.7485299264134,
        "alt_km": 840.1050697923974,
        "timestamp": "2025-12-12T09:49:09.013765+00:00",
        "meta_object_name": "FENGYUN 1C DEB",
        "meta_object_id": "1999-025BQW",
        "meta_epoch": "2025-12-12T02:51:51.280128",
        "meta_mean_motion": 14.36767896,
        "meta_eccentricity": 0.0111456,
        "meta_inclination": 98.9351,
        "meta_ra_of_asc_node": 302.3535,
        "meta_arg_of_pericenter": 221.1783,
        "meta_mean_anomaly": 138.0954,
        "meta_ephemeris_type": 0,
        "meta_classification_type": "U",
        "meta_norad_cat_id": 31342,
        "meta_element_set_no": 999,
        "meta_rev_at_epoch": 97882,
        "meta_bstar": 0.00020821,
        "meta_mean_motion_dot": 6.09e-06,
        "meta_mean_motion_ddot": 0,
        "tle_line1": "1 31342U 99025BQW 25346.11934352  .00000609  00000+0  20821-3 0  9996",
        "tle_line2": "2 31342  98.9351 302.3535 0111456 221.1783 138.0954 14.36767896978824"
      },
      "geometry": {
        "type": "Point",
        "coordinates": [
          -70.7485299264134,
          55.83410870643635
        ]
      }
    },
    {
      "type": "Feature",
      "properties": {
        "norad_id": 31346,
        "name": "FENGYUN 1C DEB",
        "group": "fengyun-1c-debris",
        "lat": 28.681260521759636,
        "lon": 138.21983855387938,
        "alt_km": 585.1918426795673,
        "timestamp": "2025-12-12T09:49:09.013776+00:00",
        "meta_object_name": "FENGYUN 1C DEB",
        "meta_object_id": "1999-025BRA",
        "meta_epoch": "2025-12-11T20:26:38.419584",
        "meta_mean_motion": 15.10865018,
        "meta_eccentricity": 0.0111021,
        "meta_inclination": 98.866,
        "meta_ra_of_asc_node": 312.676,
        "meta_arg_of_pericenter": 18.5,
        "meta_mean_anomaly": 342.0213,
        "meta_ephemeris_type": 0,
        "meta_classification_type": "U",
        "meta_norad_cat_id": 31346,
        "meta_element_set_no": 999,
        "meta_rev_at_epoch": 99482,
        "meta_bstar": 0.0016526,
        "meta_mean_motion_dot": 0.0003191,
        "meta_mean_motion_ddot": 0,
        "tle_line1": "1 31346U 99025BRA 25345.85183356  .00031910  00000+0  16526-2 0  9995",
        "tle_line2": "2 31346  98.8660 312.6760 0111021  18.5000 342.0213 15.10865018994823"
      },
      "geometry": {
        "type": "Point",
        "coordinates": [
          138.21983855387938,
          28.681260521759636
        ]
      }
    },
    {
      "type": "Feature",
      "properties": {
        "norad_id": 31348,
        "name": "FENGYUN 1C DEB",
        "group": "fengyun-1c-debris",
        "lat": -78.31093487443539,
        "lon": 66.44310655646596,
        "alt_km": 809.7130551810515,
        "timestamp": "2025-12-12T09:49:09.013786+00:00",
        "meta_object_name": "FENGYUN 1C DEB",
        "meta_object_id": "1999-025BRC",
        "meta_epoch": "2025-12-08T08:10:46.398720",
        "meta_mean_motion": 14.33993846,
        "meta_eccentricity": 0.00352025,
        "meta_inclination": 99.1191,
        "meta_ra_of_asc_node": 293.0834,
        "meta_arg_of_pericenter": 78.0004,
        "meta_mean_anomaly": 74.0816,
        "meta_ephemeris_type": 0,
        "meta_classification_type": "U",
        "meta_norad_cat_id": 31348,
        "meta_element_set_no": 999,
        "meta_rev_at_epoch": 96186,
        "meta_bstar": 0.0019749425,
        "meta_mean_motion_dot": 5.507e-05,
        "meta_mean_motion_ddot": 0,
        "tle_line1": "1 31348U 99025BRC 25342.34081480  .00005507  00000+0  19749-2 0  9996",
        "tle_line2": "2 31348  99.1191 293.0834 0035202  78.0004  74.0816 14.33993846961867"
      },
      "geometry": {
        "type": "Point",
        "coordinates": [
          66.44310655646596,
          -78.31093487443539
        ]
      }
    },
    {
      "type": "Feature",
      "properties": {
        "norad_id": 31350,
        "name": "FENGYUN 1C DEB",
        "group": "fengyun-1c-debris",
        "lat": 15.712657158036462,
        "lon": -19.043418896141496,
        "alt_km": 738.3694448917913,
        "timestamp": "2025-12-12T09:49:09.013797+00:00",
        "meta_object_name": "FENGYUN 1C DEB",
        "meta_object_id": "1999-025BRE",
        "meta_epoch": "2025-12-08T18:02:03.920064",
        "meta_mean_motion": 14.34830277,
        "meta_eccentricity": 0.00667483,
        "meta_inclination": 98.9604,
        "meta_ra_of_asc_node": 154.6193,
        "meta_arg_of_pericenter": 136.9079,
        "meta_mean_anomaly": 223.7357,
        "meta_ephemeris_type": 0,
        "meta_classification_type": "U",
        "meta_norad_cat_id": 31350,
        "meta_element_set_no": 999,
        "meta_rev_at_epoch": 70196,
        "meta_bstar": 0.0010632143,
        "meta_mean_motion_dot": 3.049e-05,
        "meta_mean_motion_ddot": 0,
        "tle_line1": "1 31350U 99025BRE 25342.75143426  .00003049  00000+0  10632-2 0  9994",
        "tle_line2": "2 31350  98.9604 154.6193 0066748 136.9079 223.7357 14.34830277701966"
      },
      "geometry": {
        "type": "Point",
        "coordinates": [
          -19.043418896141496,
          15.712657158036462
        ]
      }
    },
    {
      "type": "Feature",
      "properties": {
        "norad_id": 31351,
        "name": "FENGYUN 1C DEB",
        "group": "fengyun-1c-debris",
        "lat": 63.16296570734048,
        "lon": -44.6206395393906,
        "alt_km": 797.2847490475606,
        "timestamp": "2025-12-12T09:49:09.013807+00:00",
        "meta_object_name": "FENGYUN 1C DEB",
        "meta_object_id": "1999-025BRF",
        "meta_epoch": "2025-12-05T22:12:04.612896",
        "meta_mean_motion": 14.06922487,
        "meta_eccentricity": 0.00937925,
        "meta_inclination": 98.7943,
        "meta_ra_of_asc_node": 326.89,
        "meta_arg_of_pericenter": 70.3082,
        "meta_mean_anomaly": 290.8177,
        "meta_ephemeris_type": 0,
        "meta_classification_type": "U",
        "meta_norad_cat_id": 31351,
        "meta_element_set_no": 999,
        "meta_rev_at_epoch": 61279,
        "meta_bstar": 0.00046990462,
        "meta_mean_motion_dot": 7.73e-06,
        "meta_mean_motion_ddot": 0,
        "tle_line1": "1 31351U 99025BRF 25339.92505339  .00000773  00000+0  46990-3 0  9993",
        "tle_line2": "2 31351  98.7943 326.8900 0093792  70.3082 290.8177 14.06922487612795"
      },
      "geometry": {
        "type": "Point",
        "coordinates": [
          -44.6206395393906,
          63.16296570734048
        ]
      }
    },
    {
      "type": "Feature",
      "properties": {
        "norad_id": 31353,
        "name": "FENGYUN 1C DEB",
        "group": "fengyun-1c-debris",
        "lat": -68.79895327582521,
        "lon": 67.57310556081127,
        "alt_km": 963.7884737813565,
        "timestamp": "2025-12-12T09:49:09.013818+00:00",
        "meta_object_name": "FENGYUN 1C DEB",
        "meta_object_id": "1999-025BRH",
        "meta_epoch": "2025-12-08T13:58:15.944736",
        "meta_mean_motion": 14.29829751,
        "meta_eccentricity": 0.0229354,
        "meta_inclination": 98.9912,
        "meta_ra_of_asc_node": 267.7094,
        "meta_arg_of_pericenter": 79.5278,
        "meta_mean_anomaly": 283.1658,
        "meta_ephemeris_type": 0,
        "meta_classification_type": "U",
        "meta_norad_cat_id": 31353,
        "meta_element_set_no": 999,
        "meta_rev_at_epoch": 96525,
        "meta_bstar": 0.00080756,
        "meta_mean_motion_dot": 2.712e-05,
        "meta_mean_motion_ddot": 0,
        "tle_line1": "1 31353U 99025BRH 25342.58212899  .00002712  00000+0  80756-3 0  9990",
        "tle_line2": "2 31353  98.9912 267.7094 0229354  79.5278 283.1658 14.29829751965251"
      },
      "geometry": {
        "type": "Point",
        "coordinates": [
          67.57310556081127,
          -68.79895327582521
        ]
      }
    }
  ]
}